{
    "links": {
        "self": "http://www.neowsapp.com/rest/v1/neo/3836159?api_key=iIulBulltgU6a56xZRHN4H3l9WmuAYTsLGpBGhQ2"
    },
    "id": "3836159",
    "neo_reference_id": "3836159",
    "name": "(2018 VH6)",
    "designation": "2018 VH6",
    "nasa_jpl_url": "http://ssd.jpl.nasa.gov/sbdb.cgi?sstr=3836159",
    "absolute_magnitude_h": 24.7,
    "estimated_diameter": {
        "kilometers": {
            "estimated_diameter_min": 0.0305179233,
            "estimated_diameter_max": 0.0682401509
        },
        "meters": {
            "estimated_diameter_min": 30.5179232594,
            "estimated_diameter_max": 68.2401509401
        },
        "miles": {
            "estimated_diameter_min": 0.0189629525,
            "estimated_diameter_max": 0.0424024508
        },
        "feet": {
            "estimated_diameter_min": 100.1244233463,
            "estimated_diameter_max": 223.8850168104
        }
    },
    "is_potentially_hazardous_asteroid": false,
    "close_approach_data": [
        {
            "close_approach_date": "2018-11-02",
            "close_approach_date_full": "2018-Nov-02 15:26",
            "epoch_date_close_approach": 1541172360000,
            "relative_velocity": {
                "kilometers_per_second": "5.6649666286",
                "kilometers_per_hour": "20393.8798629064",
                "miles_per_hour": "12671.9638514821"
            },
            "miss_distance": {
                "astronomical": "0.128620545",
                "lunar": "50.033392005",
                "kilometers": "19241359.57023915",
                "miles": "11956026.42863427"
            },
            "orbiting_body": "Earth"
        }
    ],
    "orbital_data": {
        "orbit_id": "2",
        "orbit_determination_date": "2019-02-11 07:08:41",
        "first_observation_date": "2018-11-07",
        "last_observation_date": "2018-11-11",
        "data_arc_in_days": 4,
        "observations_used": 39,
        "orbit_uncertainty": "9",
        "minimum_orbit_intersection": ".117425",
        "jupiter_tisserand_invariant": "3.278",
        "epoch_osculation": "2458430.5",
        "eccentricity": ".5465376607524226",
        "semi_major_axis": "2.442303237156235",
        "inclination": "1.524548250241486",
        "ascending_node_longitude": "25.41245401006594",
        "orbital_period": "1394.112446385299",
        "perihelion_distance": "1.107492539072797",
        "perihelion_argument": "22.68439378573698",
        "aphelion_distance": "3.777113935239672",
        "perihelion_time": "2458430.193229397606",
        "mean_anomaly": ".07921700803130036",
        "mean_motion": ".2582288114085919",
        "equinox": "J2000",
        "orbit_class": {
            "orbit_class_type": "AMO",
            "orbit_class_description": "Near-Earth asteroid orbits similar to that of 1221 Amor",
            "orbit_class_range": "1.017 AU < q (perihelion) < 1.3 AU"
        }
    },
    "is_sentry_object": false
}